{
  "type": "FeatureCollection",
  "features": [
    {
      "type": "Feature",
      "properties": {
        "norad_id": 35014,
        "name": "COSMOS 2251 DEB",
        "group": "cosmos-2251-debris",
        "lat": 73.98609542141728,
        "lon": 122.46576452301123,
        "alt_km": 639.4706252799824,
        "timestamp": "2025-12-17T17:50:19.646366+00:00",
        "meta_object_name": "COSMOS 2251 DEB",
        "meta_object_id": "1993-036AGB",
        "meta_epoch": "2025-12-15T10:05:53.714976",
        "meta_mean_motion": 14.75246111,
        "meta_eccentricity": 0.00071618,
        "meta_inclination": 74,
        "meta_ra_of_asc_node": 38.2838,
        "meta_arg_of_pericenter": 216.2396,
        "meta_mean_anomaly": 143.8294,
        "meta_ephemeris_type": 0,
        "meta_classification_type": "U",
        "meta_norad_cat_id": 35014,
        "meta_element_set_no": 999,
        "meta_rev_at_epoch": 71376,
        "meta_bstar": 0.00097651538,
        "meta_mean_motion_dot": 6.583e-05,
        "meta_mean_motion_ddot": 0,
        "tle_line1": "1 35014U 93036AGB 25349.42076059  .00006583  00000+0  97652-3 0  9993",
        "tle_line2": "2 35014  74.0000  38.2838 0007161 216.2396 143.8294 14.75246111713769"
      },
      "geometry": {
        "type": "Point",
        "coordinates": [
          122.46576452301123,
          73.98609542141728
        ]
      }
    },
    {
      "type": "Feature",
      "properties": {
        "norad_id": 35015,
        "name": "COSMOS 2251 DEB",
        "group": "cosmos-2251-debris",
        "lat": -30.617003091067485,
        "lon": -144.4826319470429,
        "alt_km": 771.2942164064716,
        "timestamp": "2025-12-17T17:50:19.646376+00:00",
        "meta_object_name": "COSMOS 2251 DEB",
        "meta_object_id": "1993-036AGC",
        "meta_epoch": "2025-12-15T22:56:26.813760",
        "meta_mean_motion": 14.46895598,
        "meta_eccentricity": 0.0074243,
        "meta_inclination": 73.9481,
        "meta_ra_of_asc_node": 228.6843,
        "meta_arg_of_pericenter": 96.6585,
        "meta_mean_anomaly": 285.5342,
        "meta_ephemeris_type": 0,
        "meta_classification_type": "U",
        "meta_norad_cat_id": 35015,
        "meta_element_set_no": 999,
        "meta_rev_at_epoch": 65487,
        "meta_bstar": 0.00054698056,
        "meta_mean_motion_dot": 2.026e-05,
        "meta_mean_motion_ddot": 0,
        "tle_line1": "1 35015U 93036AGC 25349.95586590  .00002026  00000+0  54698-3 0  9999",
        "tle_line2": "2 35015  73.9481 228.6843 0074243  96.6585 285.5342 14.46895598654878"
      },
      "geometry": {
        "type": "Point",
        "coordinates": [
          -144.4826319470429,
          -30.617003091067485
        ]
      }
    },
    {
      "type": "Feature",
      "properties": {
        "norad_id": 35016,
        "name": "COSMOS 2251 DEB",
        "group": "cosmos-2251-debris",
        "lat": 41.08108664634205,
        "lon": 90.63532625218605,
        "alt_km": 735.0452452104746,
        "timestamp": "2025-12-17T17:50:19.646386+00:00",
        "meta_object_name": "COSMOS 2251 DEB",
        "meta_object_id": "1993-036AGD",
        "meta_epoch": "2025-12-17T06:11:26.386656",
        "meta_mean_motion": 14.35069488,
        "meta_eccentricity": 0.01142449,
        "meta_inclination": 73.93,
        "meta_ra_of_asc_node": 286.0846,
        "meta_arg_of_pericenter": 202.1114,
        "meta_mean_anomaly": 309.4563,
        "meta_ephemeris_type": 0,
        "meta_classification_type": "U",
        "meta_norad_cat_id": 35016,
        "meta_element_set_no": 999,
        "meta_rev_at_epoch": 86847,
        "meta_bstar": 0.00026476747,
        "meta_mean_motion_dot": 7.85e-06,
        "meta_mean_motion_ddot": 0,
        "tle_line1": "1 35016U 93036AGD 25351.25794429  .00000785  00000+0  26477-3 0  9992",
        "tle_line2": "2 35016  73.9300 286.0846 0114244 202.1114 309.4563 14.35069488868471"
      },
      "geometry": {
        "type": "Point",
        "coordinates": [
          90.63532625218605,
          41.08108664634205
        ]
      }
    },
    {
      "type": "Feature",
      "properties": {
        "norad_id": 35018,
        "name": "COSMOS 2251 DEB",
        "group": "cosmos-2251-debris",
        "lat": 71.70700685364424,
        "lon": -138.63394793542508,
        "alt_km": 989.2824986096939,
        "timestamp": "2025-12-17T17:50:19.646396+00:00",
        "meta_object_name": "COSMOS 2251 DEB",
        "meta_object_id": "1993-036AGF",
        "meta_epoch": "2025-12-14T01:34:23.097504",
        "meta_mean_motion": 13.6711728,
        "meta_eccentricity": 0.03485759,
        "meta_inclination": 73.9758,
        "meta_ra_of_asc_node": 107.7987,
        "meta_arg_of_pericenter": 16.6862,
        "meta_mean_anomaly": 344.5383,
        "meta_ephemeris_type": 0,
        "meta_classification_type": "U",
        "meta_norad_cat_id": 35018,
        "meta_element_set_no": 999,
        "meta_rev_at_epoch": 83204,
        "meta_bstar": 0.00097087301,
        "meta_mean_motion_dot": 1.216e-05,
        "meta_mean_motion_ddot": 0,
        "tle_line1": "1 35018U 93036AGF 25348.06554511  .00001216  00000+0  97087-3 0  9990",
        "tle_line2": "2 35018  73.9758 107.7987 0348575  16.6862 344.5383 13.67117280832041"
      },
      "geometry": {
        "type": "Point",
        "coordinates": [
          -138.63394793542508,
          71.70700685364424
        ]
      }
    },
    {
      "type": "Feature",
      "properties": {
        "norad_id": 35020,
        "name": "COSMOS 2251 DEB",
        "group": "cosmos-2251-debris",
        "lat": 13.069186610332618,
        "lon": -166.82961117761508,
        "alt_km": 663.6909796847785,
        "timestamp": "2025-12-17T17:50:19.646407+00:00",
        "meta_object_name": "COSMOS 2251 DEB",
        "meta_object_id": "1993-036AGH",
        "meta_epoch": "2025-12-16T23:43:20.938656",
        "meta_mean_motion": 14.62811627,
        "meta_eccentricity": 0.00912676,
        "meta_inclination": 74.046,
        "meta_ra_of_asc_node": 190.8083,
        "meta_arg_of_pericenter": 304.0673,
        "meta_mean_anomaly": 55.1854,
        "meta_ephemeris_type": 0,
        "meta_classification_type": "U",
        "meta_norad_cat_id": 35020,
        "meta_element_set_no": 999,
        "meta_rev_at_epoch": 88300,
        "meta_bstar": 0.00011860336,
        "meta_mean_motion_dot": 6.08e-06,
        "meta_mean_motion_ddot": 0,
        "tle_line1": "1 35020U 93036AGH 25350.98843679  .00000608  00000+0  11860-3 0  9992",
        "tle_line2": "2 35020  74.0460 190.8083 0091267 304.0673  55.1854 14.62811627883005"
      },
      "geometry": {
        "type": "Point",
        "coordinates": [
          -166.82961117761508,
          13.069186610332618
        ]
      }
    },
    {
      "type": "Feature",
      "properties": {
        "norad_id": 35022,
        "name": "COSMOS 2251 DEB",
        "group": "cosmos-2251-debris",
        "lat": 27.29525414452116,
        "lon": -39.1350564913083,
        "alt_km": 706.4375440059466,
        "timestamp": "2025-12-17T17:50:19.646417+00:00",
        "meta_object_name": "COSMOS 2251 DEB",
        "meta_object_id": "1993-036AGK",
        "meta_epoch": "2025-12-15T14:45:27.251136",
        "meta_mean_motion": 14.60846809,
        "meta_eccentricity": 0.00465822,
        "meta_inclination": 74.027,
        "meta_ra_of_asc_node": 316.4327,
        "meta_arg_of_pericenter": 155.4398,
        "meta_mean_anomaly": 204.9001,
        "meta_ephemeris_type": 0,
        "meta_classification_type": "U",
        "meta_norad_cat_id": 35022,
        "meta_element_set_no": 999,
        "meta_rev_at_epoch": 59185,
        "meta_bstar": 0.00033959453,
        "meta_mean_motion_dot": 1.655e-05,
        "meta_mean_motion_ddot": 0,
        "tle_line1": "1 35022U 93036AGK 25349.61489874  .00001655  00000+0  33959-3 0  9991",
        "tle_line2": "2 35022  74.0270 316.4327 0046582 155.4398 204.9001 14.60846809591850"
      },
      "geometry": {
        "type": "Point",
        "coordinates": [
          -39.1350564913083,
          27.29525414452116
        ]
      }
    },
    {
      "type": "Feature",
      "properties": {
        "norad_id": 35023,
        "name": "COSMOS 2251 DEB",
        "group": "cosmos-2251-debris",
        "lat": 70.22159775835591,
        "lon": -30.256750367614373,
        "alt_km": 597.9289195965212,
        "timestamp": "2025-12-17T17:50:19.646427+00:00",
        "meta_object_name": "COSMOS 2251 DEB",
        "meta_object_id": "1993-036AGL",
        "meta_epoch": "2025-12-17T08:33:50.658912",
        "meta_mean_motion": 14.95241358,
        "meta_eccentricity": 0.0033774,
        "meta_inclination": 74.0368,
        "meta_ra_of_asc_node": 203.2741,
        "meta_arg_of_pericenter": 280.4013,
        "meta_mean_anomaly": 262.0961,
        "meta_ephemeris_type": 0,
        "meta_classification_type": "U",
        "meta_norad_cat_id": 35023,
        "meta_element_set_no": 999,
        "meta_rev_at_epoch": 88348,
        "meta_bstar": 0.0010648636,
        "meta_mean_motion_dot": 0.00011832,
        "meta_mean_motion_ddot": 0,
        "tle_line1": "1 35023U 93036AGL 25351.35683633  .00011832  00000+0  10649-2 0  9993",
        "tle_line2": "2 35023  74.0368 203.2741 0033774 280.4013 262.0961 14.95241358883483"
      },
      "geometry": {
        "type": "Point",
        "coordinates": [
          -30.256750367614373,
          70.22159775835591
        ]
      }
    }
  ]
}